{
  "norad_id": 67844,
  "name": "STARLINK-36598",
  "history": [
    {
      "epoch": "2026-03-28T22:00:01.999584Z",
      "apogee_km": 484.0536833564038,
      "perigee_km": 482.03649582206526,
      "latitude_deg": -33.31076370209764,
      "longitude_deg": -132.9967289652282,
      "height_km": 491.5649430683561,
      "semi_major_axis_km": 6861.182089589234,
      "eccentricity": 0.000147,
      "inclination_deg": 43.0007,
      "raan_deg": 158.8509,
      "arg_perigee_deg": 270.6899,
      "mean_anomaly_deg": 322.5914,
      "mean_motion_rev_day": 15.27581338
    },
    {
      "epoch": "2026-03-29T00:00:01.999296Z",
      "apogee_km": 484.1572929933227,
      "perigee_km": 482.0440317933062,
      "latitude_deg": -18.751503898204994,
      "longitude_deg": -49.265664043232896,
      "height_km": 486.80592034282995,
      "semi_major_axis_km": 6861.237662393314,
      "eccentricity": 0.000154,
      "inclination_deg": 43.0006,
      "raan_deg": 158.3802,
      "arg_perigee_deg": 260.1702,
      "mean_anomaly_deg": 71.9282,
      "mean_motion_rev_day": 15.27562779
    },
    {
      "epoch": "2026-03-30T04:22:10.465248Z",
      "apogee_km": 484.00548868112764,
      "perigee_km": 482.0773603202733,
      "latitude_deg": 2.9180357621453637e-06,
      "longitude_deg": -101.41647930238052,
      "height_km": 482.9822626482867,
      "semi_major_axis_km": 6861.1784245007,
      "eccentricity": 0.00014051,
      "inclination_deg": 42.9992,
      "raan_deg": 151.7046,
      "arg_perigee_deg": 260.1898,
      "mean_anomaly_deg": 99.8795,
      "mean_motion_rev_day": 15.27582562
    },
    {
      "epoch": "2026-03-30T12:12:57.382272Z",
      "apogee_km": 484.03779798300457,
      "perigee_km": 481.9725941819843,
      "latitude_deg": -1.1603680966279347e-05,
      "longitude_deg": 138.72137919429952,
      "height_km": 482.79505945833506,
      "semi_major_axis_km": 6861.142196082495,
      "eccentricity": 0.0001505,
      "inclination_deg": 43.0008,
      "raan_deg": 149.8602,
      "arg_perigee_deg": 269.2793,
      "mean_anomaly_deg": 90.7886,
      "mean_motion_rev_day": 15.27594661
    },
    {
      "epoch": "2026-03-31T11:45:18.304416Z",
      "apogee_km": 484.0306408377037,
      "perigee_km": 481.95487464079724,
      "latitude_deg": -2.0233537840699943e-05,
      "longitude_deg": 139.12767731030834,
      "height_km": 482.65568603183044,
      "semi_major_axis_km": 6861.129757739251,
      "eccentricity": 0.00015127,
      "inclination_deg": 43.0006,
      "raan_deg": 144.3204,
      "arg_perigee_deg": 276.3028,
      "mean_anomaly_deg": 83.7651,
      "mean_motion_rev_day": 15.27598815
    },
    {
      "epoch": "2026-04-01T14:25:57.485856Z",
      "apogee_km": 484.1014308687136,
      "perigee_km": 481.8509857363897,
      "latitude_deg": -5.430646768539105e-05,
      "longitude_deg": 91.59047836840396,
      "height_km": 482.78918071530893,
      "semi_major_axis_km": 6861.113208302551,
      "eccentricity": 0.000164,
      "inclination_deg": 43.0009,
      "raan_deg": 138.0421,
      "arg_perigee_deg": 268.1677,
      "mean_anomaly_deg": 91.8986,
      "mean_motion_rev_day": 15.27604342
    },
    {
      "epoch": "2026-04-02T13:58:18.169536Z",
      "apogee_km": 484.11990016405343,
      "perigee_km": 481.8070231984202,
      "latitude_deg": 4.8899326129985573e-05,
      "longitude_deg": 92.00009171026875,
      "height_km": 482.5426652410276,
      "semi_major_axis_km": 6861.100461681237,
      "eccentricity": 0.00016855,
      "inclination_deg": 43.001,
      "raan_deg": 132.5045,
      "arg_perigee_deg": 279.8505,
      "mean_anomaly_deg": 80.2157,
      "mean_motion_rev_day": 15.27608599
    },
    {
      "epoch": "2026-04-03T11:56:28.805568Z",
      "apogee_km": 484.219534290457,
      "perigee_km": 481.5925781250962,
      "latitude_deg": -4.342278857819126e-06,
      "longitude_deg": 116.38245810869272,
      "height_km": 482.5703864280096,
      "semi_major_axis_km": 6861.043056207776,
      "eccentricity": 0.00019144,
      "inclination_deg": 43.002,
      "raan_deg": 127.3335,
      "arg_perigee_deg": 274.9357,
      "mean_anomaly_deg": 85.1276,
      "mean_motion_rev_day": 15.27627771
    },
    {
      "epoch": "2026-04-04T13:03:00.209088Z",
      "apogee_km": 484.25581484350096,
      "perigee_km": 481.88046562395084,
      "latitude_deg": 6.182166016294891e-06,
      "longitude_deg": 92.81204215671006,
      "height_km": 483.0375135554292,
      "semi_major_axis_km": 6861.205140233726,
      "eccentricity": 0.0001731,
      "inclination_deg": 43.0013,
      "raan_deg": 121.4251,
      "arg_perigee_deg": 260.6818,
      "mean_anomaly_deg": 99.3838,
      "mean_motion_rev_day": 15.2757364
    },
    {
      "epoch": "2026-04-05T12:35:21.639264Z",
      "apogee_km": 484.1464198368958,
      "perigee_km": 481.93163221569466,
      "latitude_deg": 5.4779550509636144e-06,
      "longitude_deg": 93.21702350111339,
      "height_km": 482.94375841622076,
      "semi_major_axis_km": 6861.1760260262945,
      "eccentricity": 0.0001614,
      "inclination_deg": 43.0009,
      "raan_deg": 115.8861,
      "arg_perigee_deg": 263.3738,
      "mean_anomaly_deg": 96.693,
      "mean_motion_rev_day": 15.27583363
    },
    {
      "epoch": "2026-04-06T07:25:13.947744Z",
      "apogee_km": 483.99094165752285,
      "perigee_km": 481.9684216821006,
      "latitude_deg": 4.675431912204995e-05,
      "longitude_deg": 165.54494412551443,
      "height_km": 482.6720595039104,
      "semi_major_axis_km": 6861.116681669811,
      "eccentricity": 0.00014739,
      "inclination_deg": 43.0022,
      "raan_deg": 111.4553,
      "arg_perigee_deg": 274.8006,
      "mean_anomaly_deg": 85.2678,
      "mean_motion_rev_day": 15.27603182
    },
    {
      "epoch": "2026-04-07T00:40:57.102816Z",
      "apogee_km": 483.68521768224673,
      "perigee_km": 482.3121672074749,
      "latitude_deg": 3.5441201959269615e-05,
      "longitude_deg": -98.15710716930025,
      "height_km": 483.06176214910266,
      "semi_major_axis_km": 6861.13569244486,
      "eccentricity": 0.00010006,
      "inclination_deg": 42.9996,
      "raan_deg": 107.392,
      "arg_perigee_deg": 245.2995,
      "mean_anomaly_deg": 114.7753,
      "mean_motion_rev_day": 15.27596833
    },
    {
      "epoch": "2026-04-08T11:12:23.470848Z",
      "apogee_km": 484.47788082441366,
      "perigee_km": 481.4798476363794,
      "latitude_deg": 4.994391824368051e-06,
      "longitude_deg": 94.44243933477696,
      "height_km": 482.64990748050957,
      "semi_major_axis_km": 6861.115864230396,
      "eccentricity": 0.00021848,
      "inclination_deg": 43.0042,
      "raan_deg": 99.2693,
      "arg_perigee_deg": 274.0834,
      "mean_anomaly_deg": 85.9768,
      "mean_motion_rev_day": 15.27603455
    },
    {
      "epoch": "2026-04-09T10:44:44.405088Z",
      "apogee_km": 484.3345824138205,
      "perigee_km": 481.67492942355693,
      "latitude_deg": -1.2200195740485654e-05,
      "longitude_deg": 94.85227357788776,
      "height_km": 482.43555419919005,
      "semi_major_axis_km": 6861.141755918688,
      "eccentricity": 0.00019382,
      "inclination_deg": 43.0038,
      "raan_deg": 93.7331,
      "arg_perigee_deg": 285.1145,
      "mean_anomaly_deg": 74.9492,
      "mean_motion_rev_day": 15.27594808
    },
    {
      "epoch": "2026-04-10T10:17:04.947936Z",
      "apogee_km": 484.10814062134705,
      "perigee_km": 481.8645532868941,
      "latitude_deg": 4.741458994895518e-05,
      "longitude_deg": 95.2591253112702,
      "height_km": 483.1062529744378,
      "semi_major_axis_km": 6861.12334695412,
      "eccentricity": 0.0001635,
      "inclination_deg": 43.0017,
      "raan_deg": 88.1922,
      "arg_perigee_deg": 252.1992,
      "mean_anomaly_deg": 107.8682,
      "mean_motion_rev_day": 15.27600956
    },
    {
      "epoch": "2026-04-11T16:06:03.640608Z",
      "apogee_km": 483.78529902363334,
      "perigee_km": 482.29779551458523,
      "latitude_deg": -9.460179273461992e-06,
      "longitude_deg": -0.22690262034207737,
      "height_km": 482.7375638390948,
      "semi_major_axis_km": 6861.178547269109,
      "eccentricity": 0.0001084,
      "inclination_deg": 43.0026,
      "raan_deg": 81.1753,
      "arg_perigee_deg": 276.2301,
      "mean_anomaly_deg": 83.8427,
      "mean_motion_rev_day": 15.27582521
    },
    {
      "epoch": "2026-04-13T04:11:38.853600Z",
      "apogee_km": 483.9028810497639,
      "perigee_km": 482.00578929558833,
      "latitude_deg": 3.2917238290972387e-05,
      "longitude_deg": 168.39962929731277,
      "height_km": 482.92218866577184,
      "semi_major_axis_km": 6861.091335172676,
      "eccentricity": 0.00013825,
      "inclination_deg": 43.0038,
      "raan_deg": 72.6808,
      "arg_perigee_deg": 258.3958,
      "mean_anomaly_deg": 101.6739,
      "mean_motion_rev_day": 15.27611647
    }
  ]
}